[{"OBJECT_NAME":"GAOFEN-9 05","OBJECT_ID":"2020-058A","EPOCH":"2026-03-10T00:01:50.876256","MEAN_MOTION":15.30293976,"ECCENTRICITY":0.0010522,"INCLINATION":97.2228,"RA_OF_ASC_NODE":111.963,"ARG_OF_PERICENTER":91.0204,"MEAN_ANOMALY":269.2242,"EPHEMERIS_TYPE":0,"CLASSIFICATION_TYPE":"U","NORAD_CAT_ID":46232,"ELEMENT_SET_NO":999,"REV_AT_EPOCH":30843,"BSTAR":0.00025120304,"MEAN_MOTION_DOT":7.299e-5,"MEAN_MOTION_DDOT":0},{"OBJECT_NAME":"STARLINK-31993","OBJECT_ID":"2024-107S","EPOCH":"2026-03-09T06:44:36.926016","MEAN_MOTION":15.30197661,"ECCENTRICITY":0.00012122,"INCLINATION":53.161,"RA_OF_ASC_NODE":67.4421,"ARG_OF_PERICENTER":86.4352,"MEAN_ANOMALY":273.6787,"EPHEMERIS_TYPE":0,"CLASSIFICATION_TYPE":"U","NORAD_CAT_ID":59961,"ELEMENT_SET_NO":999,"REV_AT_EPOCH":9967,"BSTAR":2.1540336e-5,"MEAN_MOTION_DOT":2.79e-6,"MEAN_MOTION_DDOT":0}]
